BEIDOU-2 IGSO-1 (C06)   
1 36828U 10036A   23359.40425003 -.00000052  00000+0  00000+0 0  9993
2 36828  54.2421 171.1500 0038419 191.1128 345.5184  1.00277810 49133
BEIDOU-2 G4 (C04)       
1 37210U 10057A   23359.60643876 -.00000103  00000+0  00000+0 0  9991
2 37210   1.4327  65.3022 0008194 188.0358 218.8140  1.00273118 48228
BEIDOU-2 IGSO-2 (C07)   
1 37256U 10068A   23359.22718309 -.00000203  00000+0  00000+0 0  9996
2 37256  49.2037 282.9524 0028936 212.4200 144.2388  1.00247750 47716
BEIDOU-2 IGSO-3 (C08)   
1 37384U 11013A   23359.57603194 -.00000185  00000+0  00000+0 0  9991
2 37384  61.0970  48.8029 0026560 184.7623 172.0741  1.00253493 46583
BEIDOU-2 IGSO-4 (C09)   
1 37763U 11038A   23359.41442712  .00000038  00000+0  00000+0 0  9995
2 37763  54.5513 173.7281 0116078 226.4036 294.8761  1.00294901 45570
BEIDOU-2 IGSO-5 (C10)   
1 37948U 11073A   23359.23156385 -.00000158  00000+0  00000+0 0  9991
2 37948  49.3314 282.6264 0094840 221.1647 126.3329  1.00290687 44057
BEIDOU-2 G5 (C05)       
1 38091U 12008A   23359.54577858  .00000065  00000+0  00000+0 0  9992
2 38091   1.9802  70.0696 0009050 208.6510  70.2741  1.00274876 43291
BEIDOU-2 M3 (C11)       
1 38250U 12018A   23359.42210556 -.00000104  00000+0  00000+0 0  9991
2 38250  56.4496 335.1526 0025103 264.4790  95.2237  1.86231228 79098
BEIDOU-2 M4 (C12)       
1 38251U 12018B   23359.35306804 -.00000104  00000+0  00000+0 0  9996
2 38251  56.3589 334.4395 0016071 268.4890  91.3157  1.86231976 79094
BEIDOU-2 M6 (C14)       
1 38775U 12050B   23357.98881455 -.00000067  00000+0  00000+0 0  9998
2 38775  55.7753  93.0599 0011421 330.4394  29.4842  1.86230998 76439
BEIDOU-2 G6 (C02)       
1 38953U 12059A   23359.59565253 -.00000167  00000+0  00000+0 0  9990
2 38953   2.1150  81.5669 0008617 286.0968  24.6230  1.00271896 40831
BEIDOU-3S IGSO-1S (C31) 
1 40549U 15019A   23359.23356733 -.00000198  00000+0  00000+0 0  9999
2 40549  50.8982 306.2545 0035972 195.5111 130.3751  1.00287822 31992
BEIDOU-3S M2S (C58)     
1 40748U 15037A   23358.48089720 -.00000103  00000+0  00000+0 0  9991
2 40748  55.5968 332.9992 0012411 260.1170  99.7327  1.86233045 57254
BEIDOU-3S M1S (C57)     
1 40749U 15037B   23359.28807633 -.00000105  00000+0  00000+0 0  9994
2 40749  55.5993 332.9584 0006809 315.2713  44.6619  1.86232940 57277
BEIDOU-3S IGSO-2S (C56) 
1 40938U 15053A   23359.22903376 -.00000126  00000+0  00000+0 0  9990
2 40938  50.6324 269.4472 0046299 192.6422 168.1676  1.00257533 30280
BEIDOU-2 IGSO-6 (C13)   
1 41434U 16021A   23359.63856640 -.00000162  00000+0  00000+0 0  9994
2 41434  58.9145  47.1191 0049761 224.0204 147.2625  1.00261084 28418
BEIDOU-2 G7 (C03)       
1 41586U 16037A   23359.64273045 -.00000345  00000+0  00000+0 0  9995
2 41586   1.4916  66.6328 0009162 313.7587  55.4542  1.00271754 27720
BEIDOU-3 M1 (C19)       
1 43001U 17069A   23358.82894506 -.00000068  00000+0  00000+0 0  9997
2 43001  55.9270  93.1049 0009258 290.4138  69.4765  1.86231302 41744
BEIDOU-3 M2 (C20)       
1 43002U 17069B   23359.30281762 -.00000067  00000+0  00000+0 0  9995
2 43002  55.9268  93.1255 0006615 314.0611  45.8755  1.86231022 41740
BEIDOU-3 M7 (C27)       
1 43107U 18003A   23359.05307465 -.00000105  00000+0  00000+0 0  9994
2 43107  55.0534 333.6475 0003104  45.6956 314.3193  1.86232346 40499
BEIDOU-3 M8 (C28)       
1 43108U 18003B   23358.99208951 -.00000105  00000+0  00000+0 0  9997
2 43108  55.0464 333.6360 0004852 268.9603  90.9736  1.86230845 40509
BEIDOU-3 M4 (C22)       
1 43207U 18018A   23359.43393633 -.00000067  00000+0  00000+0 0  9992
2 43207  55.8864  93.1797 0003778 347.3790  12.6029  1.86231253 39898
BEIDOU-3 M3 (C21)       
1 43208U 18018B   23359.50056409 -.00000066  00000+0  00000+0 0  9997
2 43208  55.8858  93.1820 0006808 300.9851  58.9398  1.86231381 39893
BEIDOU-3 M9 (C29)       
1 43245U 18029A   23359.18592346 -.00000106  00000+0  00000+0 0  9994
2 43245  54.9429 331.3666 0002080 283.5209  76.4434  1.86232553 39049
BEIDOU-3 M10 (C30)      
1 43246U 18029B   23358.57884988 -.00000105  00000+0  00000+0 0  9992
2 43246  54.9408 331.4163 0004493 344.4675  15.5073  1.86232704 39012
BEIDOU-2 IGSO-7 (C16)   
1 43539U 18057A   23359.32048826 -.00000049  00000+0  00000+0 0  9992
2 43539  55.1260 170.8750 0064422 228.9514 279.4616  1.00249161 20070
BEIDOU-3 M5 (C23)       
1 43581U 18062A   23358.26264294  .00000098  00000+0  00000+0 0  9999
2 43581  54.1559 213.1296 0002004 341.1133  18.9660  1.86228661 36760
BEIDOU-3 M6 (C24)       
1 43582U 18062B   23358.12930345  .00000099  00000+0  00000+0 0  9993
2 43582  54.1554 213.1236 0007145  36.0177 324.1170  1.86229699 36769
BEIDOU-3 M12 (C26)      
1 43602U 18067A   23359.13847771  .00000095  00000+0  00000+0 0  9999
2 43602  54.2439 211.7547 0008254  29.2393 330.8922  1.86231524 36264
BEIDOU-3 M11 (C25)      
1 43603U 18067B   23359.27231927  .00000094  00000+0  00000+0 0  9994
2 43603  54.2412 211.7158 0004963  25.8784 334.2315  1.86231499 36291
BEIDOU-3 M13 (C32)      
1 43622U 18072A   23358.69471611 -.00000069  00000+0  00000+0 0  9995
2 43622  55.8558  92.7415 0006096 282.1689  77.7528  1.86231076 35794
BEIDOU-3 M14 (C33)      
1 43623U 18072B   23359.09712354 -.00000068  00000+0  00000+0 0  9992
2 43623  55.8580  92.7209 0003336 307.4652  52.4954  1.86231110 35798
BEIDOU-3 M16 (C35)      
1 43647U 18078A   23359.26069004 -.00000106  00000+0  00000+0 0  9993
2 43647  54.8392 331.4776 0007368   0.6316 359.3565  1.86232231 35303
BEIDOU-3 M15 (C34)      
1 43648U 18078B   23359.38978441 -.00000106  00000+0  00000+0 0  9991
2 43648  54.8351 331.4767 0004268   0.2451 359.7422  1.86232144 35322
BEIDOU-3 G1 (C59)       
1 43683U 18085A   23359.58659182 -.00000268  00000+0  00000+0 0  9997
2 43683   1.7730 117.5391 0001145  22.1190 305.4311  1.00271935 18988
BEIDOU-3 M17 (C36)      
1 43706U 18093A   23358.46403147  .00000098  00000+0  00000+0 0  9996
2 43706  54.2386 213.0481 0006603 295.0384  64.9799  1.86228261 34675
BEIDOU-3 M18 (C37)      
1 43707U 18093B   23358.33076013  .00000098  00000+0  00000+0 0  9991
2 43707  54.2393 213.0444 0006389 334.1843  25.8707  1.86229782 34662
BEIDOU-3 IGSO-1 (C38)   
1 44204U 19023A   23357.55173358 -.00000234  00000+0  00000+0 0  9994
2 44204  57.3801  47.0795 0023899 203.7521 155.3001  1.00249331 17245
BEIDOU-2 G8 (C01)       
1 44231U 19027A   23359.59274726 -.00000239  00000+0  00000+0 0  9990
2 44231   1.5191  72.2364 0004881 172.3678 207.0941  1.00275528 17014
BEIDOU-3 IGSO-2 (C39)   
1 44337U 19035A   23359.42825927 -.00000065  00000+0  00000+0 0  9990
2 44337  55.1636 166.8029 0030958 199.7445 358.3727  1.00295525 16590
BEIDOU-3 M24 (C46)      
1 44542U 19061A   23358.40156868  .00000098  00000+0  00000+0 0  9990
2 44542  54.4659 213.3021 0008826   9.9232 350.1814  1.86231427 28922
BEIDOU-3 M23 (C45)      
1 44543U 19061B   23359.61248794  .00000091  00000+0  00000+0 0  9998
2 44543  54.4641 213.2301 0005554   8.2524 355.7411  1.86231797 28952
BEIDOU-3 IGSO-3 (C40)   
1 44709U 19073A   23359.22600834 -.00000213  00000+0  00000+0 0  9996
2 44709  56.3486 290.5763 0033390 189.2960 170.6224  1.00247886 15388
BEIDOU-3 M22 (C44)      
1 44793U 19078A   23359.32083287 -.00000106  00000+0  00000+0 0  9993
2 44793  54.6875 331.4289 0006197   5.4037 354.5903  1.86232032 27797
BEIDOU-3 M21 (C43)      
1 44794U 19078B   23358.37721256 -.00000104  00000+0  00000+0 0  9991
2 44794  54.6619 331.4415 0004344 352.3604   7.6221  1.86232494 27781
BEIDOU-3 M19 (C41)      
1 44864U 19090A   23359.16519372 -.00000068  00000+0  00000+0 0  9994
2 44864  55.7906  92.9061 0017437 273.5670  88.1833  1.86231567 27389
BEIDOU-3 M20 (C42)      
1 44865U 19090B   23359.56596784 -.00000066  00000+0  00000+0 0  9999
2 44865  55.7927  92.9256 0014951 286.4407  73.7791  1.86231552 27374
BEIDOU-3 G2 (C60)       
1 45344U 20017A   23359.59516068 -.00000133  00000+0  00000+0 0  9998
2 45344   2.1306  21.9987 0003598 243.7716 122.3504  1.00271745 14194
BEIDOU-3 G3 (C61)       
1 45807U 20040A   23359.64273053 -.00000344  00000+0  00000+0 0  9992
2 45807   0.5825  10.0663 0009776 302.2340 123.5327  1.00269605 13001
BEIDOU-3 G4             
1 56564U 23066A   23359.60665576 -.00000097  00000+0  00000+0 0  9991
2 56564   2.5601 288.3845 0003580 239.9106 304.0128  1.00272444  2325
